[{"OBJECT_NAME":"AMAZONIA 1","OBJECT_ID":"2021-015A","EPOCH":"2026-03-09T17:05:01.705920","MEAN_MOTION":14.40836291,"ECCENTRICITY":0.00039353,"INCLINATION":98.4264,"RA_OF_ASC_NODE":142.7385,"ARG_OF_PERICENTER":123.8493,"MEAN_ANOMALY":236.3071,"EPHEMERIS_TYPE":0,"CLASSIFICATION_TYPE":"U","NORAD_CAT_ID":47699,"ELEMENT_SET_NO":999,"REV_AT_EPOCH":26432,"BSTAR":0.00010973552,"MEAN_MOTION_DOT":3.08e-6,"MEAN_MOTION_DDOT":0},{"OBJECT_NAME":"COSMOS 2251 DEB","OBJECT_ID":"1993-036ALG","EPOCH":"2026-03-02T11:28:02.472096","MEAN_MOTION":14.30041703,"ECCENTRICITY":0.00827897,"INCLINATION":74.0357,"RA_OF_ASC_NODE":123.7856,"ARG_OF_PERICENTER":141.5288,"MEAN_ANOMALY":219.1805,"EPHEMERIS_TYPE":0,"CLASSIFICATION_TYPE":"U","NORAD_CAT_ID":35462,"ELEMENT_SET_NO":999,"REV_AT_EPOCH":67520,"BSTAR":0.0013139411,"MEAN_MOTION_DOT":3.497e-5,"MEAN_MOTION_DDOT":0}]
